{
    "orders": [
        {
            "shirt_id": "1",
            "user_id": "6",
            "color": "lab",
            "size": "X-Small",
            "address": "98582 Greenfelder Brook",
            "apt": "Apt. 381",
            "city": "Port Ryann",
            "state": "Alaska",
            "zip": "83962-1621"
        },
        {
            "shirt_id": "3",
            "user_id": "3",
            "color": "hwb",
            "size": "XX-Large",
            "address": "6501 Deckow Rue",
            "apt": "Suite 915",
            "city": "Ivyberg",
            "state": "Oklahoma",
            "zip": "39068"
        },
        {
            "shirt_id": "1",
            "user_id": "1",
            "color": "rgba",
            "size": "XX-Large",
            "address": "17491 Joelle Parkway",
            "apt": "Apt. 716",
            "city": "Lee's Summit",
            "state": "South Dakota",
            "zip": "64058"
        },
        {
            "shirt_id": "3",
            "user_id": "1",
            "color": "lch",
            "size": "XX-Large",
            "address": "4176 Weissnat Meadow",
            "apt": "Apt. 312",
            "city": "Alberthafort",
            "state": "Pennsylvania",
            "zip": "41088"
        },
        {
            "shirt_id": "3",
            "user_id": "1",
            "color": "rgb",
            "size": "Small",
            "address": "7324 Wiegand Pass",
            "apt": "Apt. 135",
            "city": "West Vergiestad",
            "state": "Minnesota",
            "zip": "82506"
        },
        {
            "shirt_id": "1",
            "user_id": "3",
            "color": "hsl",
            "size": "X-Small",
            "address": "507 Opal Trafficway",
            "apt": "Suite 699",
            "city": "Marquardtville",
            "state": "Maryland",
            "zip": "01642"
        },
        {
            "shirt_id": "2",
            "user_id": "3",
            "color": "color",
            "size": "X-Small",
            "address": "33104 Hudson Trace",
            "apt": "Suite 188",
            "city": "North Delfina",
            "state": "Montana",
            "zip": "31970"
        },
        {
            "shirt_id": "2",
            "user_id": "8",
            "color": "rgba",
            "size": "Large",
            "address": "040 Murphy Center",
            "apt": "Apt. 858",
            "city": "Devynbury",
            "state": "Minnesota",
            "zip": "19638-1409"
        },
        {
            "shirt_id": "3",
            "user_id": "7",
            "color": "cmyk",
            "size": "Medium",
            "address": "33909 Quitzon Corner",
            "apt": "Suite 632",
            "city": "South Sammyboro",
            "state": "Arizona",
            "zip": "09783"
        },
        {
            "shirt_id": "1",
            "user_id": "4",
            "color": "hsla",
            "size": "X-Large",
            "address": "80538 Muller Haven",
            "apt": "Apt. 777",
            "city": "Krajcikhaven",
            "state": "Minnesota",
            "zip": "28585-0878"
        }
    ]
}