[{"shirt_id":"2","user_id":"7","color":"lavender","size":"XL","city":"La Mirada","address":"21782 Gardner Parkways","state":"New Jersey","zip":"95922-5321","apt":"Suite 886"},
{"shirt_id":"3","user_id":"9","color":"red","size":"S","city":"Jasminland","address":"707 Hartmann Coves","state":"Virginia","zip":"15870-6642","apt":"Suite 294"},
{"shirt_id":"3","user_id":"9","color":"maroon","size":"XXL","city":"Bradenshire","address":"31468 Audie Summit","state":"Idaho","zip":"61873","apt":"Suite 108"},
{"shirt_id":"3","user_id":"9","color":"teal","size":"XL","city":"Harveyburgh","address":"3000 Morissette Village","state":"Indiana","zip":"05089-8184","apt":"Apt. 191"},
{"shirt_id":"1","user_id":"8","color":"red","size":"XL","city":"Borerbury","address":"568 Altenwerth Canyon","state":"Alabama","zip":"25046-4946","apt":"Apt. 051"},
{"shirt_id":"2","user_id":"9","color":"white","size":"L","city":"Pfannerstillfield","address":"5211 Chelsey Shoal","state":"Connecticut","zip":"13411-3841","apt":"Apt. 547"},
{"shirt_id":"3","user_id":"4","color":"green","size":"L","city":"Albany","address":"2320 Myrtis Camp","state":"Massachusetts","zip":"97600-7735","apt":"Suite 885"},
{"shirt_id":"2","user_id":"10","color":"red","size":"S","city":"Port Emmafort","address":"6835 Milan Spur","state":"Tennessee","zip":"23617-3306","apt":"Suite 322"},
{"shirt_id":"1","user_id":"5","color":"indigo","size":"XXL","city":"Padbergfort","address":"27436 Brittany Trace","state":"Maine","zip":"80843","apt":"Suite 710"},
{"shirt_id":"1","user_id":"10","color":"orchid","size":"XL","city":"Chaunceyboro","address":"6520 Gleichner Brook","state":"Alabama","zip":"26762-1699","apt":"Apt. 258"}]